1 26871U 01031A   12036.23352140 -.00000284  00000-0  10000-3 0  4399
2 26871 001.9600 074.4550 0001630 278.9511 165.2542 01.00284340 38660